[{"OBJECT_NAME":"STARLINK-30557","OBJECT_ID":"2023-160N","EPOCH":"2026-03-09T01:19:54.971904","MEAN_MOTION":15.02538542,"ECCENTRICITY":9.696e-5,"INCLINATION":43.0007,"RA_OF_ASC_NODE":83.6006,"ARG_OF_PERICENTER":276.5853,"MEAN_ANOMALY":83.4879,"EPHEMERIS_TYPE":0,"CLASSIFICATION_TYPE":"U","NORAD_CAT_ID":58087,"ELEMENT_SET_NO":999,"REV_AT_EPOCH":13282,"BSTAR":-3.776628e-6,"MEAN_MOTION_DOT":-2.55e-6,"MEAN_MOTION_DDOT":0},{"OBJECT_NAME":"TITAN 4B DEB","OBJECT_ID":"2000-047D","EPOCH":"2026-03-09T07:18:39.687264","MEAN_MOTION":14.9350217,"ECCENTRICITY":0.00548001,"INCLINATION":67.9962,"RA_OF_ASC_NODE":173.9856,"ARG_OF_PERICENTER":92.7359,"MEAN_ANOMALY":268.0056,"EPHEMERIS_TYPE":0,"CLASSIFICATION_TYPE":"U","NORAD_CAT_ID":35415,"ELEMENT_SET_NO":999,"REV_AT_EPOCH":6621,"BSTAR":7.6847696e-5,"MEAN_MOTION_DOT":7.12e-6,"MEAN_MOTION_DDOT":0}]
